NORAD_CAT_ID,OBJECT_NAME,OBJECT_TYPE,EPOCH,MEAN_MOTION,ECCENTRICITY,INCLINATION,RA_OF_ASC_NODE,ARG_OF_PERICENTER,MEAN_ANOMALY,BSTAR,MEAN_MOTION_DOT,MEAN_MOTION_DDOT,TLE_LINE0,TLE_LINE1,TLE_LINE2,SEMIMAJOR_AXIS,PERIOD,APOGEE,PERIGEE,DECAYED
51727.0,STARLINK-3532,PAYLOAD,2022-08-08 22:00:00,15.08871922,0.0001948,53.2154,84.4264,64.7394,175.5295,-0.0019217,-0.00030769,0.0,0 STARLINK-3532,1 51727U 22016P   22220.91667824 -.00030769  00000-0 -19217-2 0  9993,2 51727  53.2154  84.4264 0001948  64.7394 175.5295 15.08871922 26901,6917.783,95.436,540.995,538.3,0.0
51727.0,STARLINK-3532,PAYLOAD,2022-08-09 14:00:01,15.08814655,0.0001692,53.2152,81.4318,68.8686,194.607,0.00172,0.00027173,0.0,0 STARLINK-3532,1 51727U 22016P   22221.58334491  .00027173  00000-0  17200-2 0  9991,2 51727  53.2152  81.4318 0001692  68.8686 194.6070 15.08814655  1301,6917.958000000001,95.439,540.993,538.6519999999998,0.0
51727.0,STARLINK-3532,PAYLOAD,2022-08-09 22:00:00,15.08815287,0.0001785,53.2152,79.9372,60.9492,214.1039,-0.0014894,-0.00023898,0.0,0 STARLINK-3532,1 51727U 22016P   22221.91667824 -.00023898  00000-0 -14894-2 0  9995,2 51727  53.2152  79.9372 0001785  60.9492 214.1039 15.08815287  1309,6917.956,95.439,541.056,538.586,0.0
51727.0,STARLINK-3532,PAYLOAD,2022-08-10 06:00:00,15.08825564,0.0001678,53.2151,78.4401,60.0339,226.573,-0.0017889,-0.00028635,0.0,0 STARLINK-3532,1 51727U 22016P   22222.25001157 -.00028635  00000-0 -17889-2 0  9995,2 51727  53.2151  78.4401 0001678  60.0339 226.5730 15.08825564 27107,6917.925,95.438,540.95,538.629,0.0
51727.0,STARLINK-3532,PAYLOAD,2022-08-10 14:00:01,15.08806455,0.0001674,53.2153,76.9426,67.2291,230.9413,0.0020164,0.00031919,0.0,0 STARLINK-3532,1 51727U 22016P   22222.58334491  .00031919  00000-0  20164-2 0  9998,2 51727  53.2153  76.9426 0001674  67.2291 230.9413 15.08806455  1300,6917.983,95.44,541.006,538.69,0.0
51727.0,STARLINK-3532,PAYLOAD,2022-08-10 22:00:00,15.08814437,0.0001831999999999,53.2153,75.44800000000002,60.3928,249.3473,0.00065224,0.000101,0.0,0 STARLINK-3532,1 51727U 22016P   22222.91667824  .00010100  00000-0  65224-3 0  9990,2 51727  53.2153  75.4480 0001832  60.3928 249.3473 15.08814437  1300,6917.959,95.439,541.091,538.556,0.0
51727.0,STARLINK-3532,PAYLOAD,2022-08-11 14:00:01,15.08829007,0.0001733,53.2156,72.4532,67.4069,265.4839,0.0017288,0.00027325,0.0,0 STARLINK-3532,1 51727U 22016P   22223.58334491  .00027325  00000-0  17288-2 0  9998,2 51727  53.2156  72.4532 0001733  67.4069 265.4839 15.08829007  1306,6917.9140000000025,95.438,540.9780000000002,538.58,0.0
51727.0,STARLINK-3532,PAYLOAD,2022-08-12 00:00:00,15.08819162,0.000186,53.2156,70.5846,59.3815,18.0067,0.0030616999999999,0.00048749,0.0,0 STARLINK-3532,1 51727U 22016P   22224.00001157  .00048749  00000-0  30617-2 0  9990,2 51727  53.2156  70.5846 0001860  59.3815  18.0067 15.08819162 27374,6917.944,95.439,541.096,538.5219999999998,0.0
51727.0,STARLINK-3532,PAYLOAD,2022-08-12 14:00:01,15.08866541,0.0001720999999999,53.2159,67.9636,67.2408,300.4492,-0.00023853,-4.085e-05,0.0,0 STARLINK-3532,1 51727U 22016P   22224.58334491 -.00004085  00000-0 -23853-3 0  9995,2 51727  53.2159  67.9636 0001721  67.2408 300.4492 15.08866541 27458,6917.799,95.436,540.855,538.474,0.0
51727.0,STARLINK-3532,PAYLOAD,2022-08-12 22:00:01,15.08832355,0.000181,53.2158,66.4687,59.8237,319.5589,0.00073867,0.00011485,0.0,0 STARLINK-3532,1 51727U 22016P   22224.91668981  .00011485  00000-0  73867-3 0  9996,2 51727  53.2158  66.4687 0001810  59.8237 319.5589 15.08832355  1303,6917.904,95.438,541.021,538.5169999999998,0.0
51727.0,STARLINK-3532,PAYLOAD,2022-08-13 06:00:02,15.08865699,0.0001648,53.2158,64.9709,60.8455,330.1239,-0.0033673,-0.00053519,0.0,0 STARLINK-3532,1 51727U 22016P   22225.25002315 -.00053519  00000-0 -33673-2 0  9993,2 51727  53.2158  64.9709 0001648  60.8455 330.1239 15.08865699 27568,6917.802,95.436,540.807,538.5269999999998,0.0
51727.0,STARLINK-3532,PAYLOAD,2022-08-13 14:00:01,15.08828697,0.000155,53.216,63.474,65.9423,336.5635,5.6745e-05,6.15e-06,0.0,0 STARLINK-3532,1 51727U 22016P   22225.58334491  .00000615  00000-0  56745-4 0  9996,2 51727  53.2160  63.4740 0001550  65.9423 336.5635 15.08828697  1304,6917.915,95.438,540.852,538.7080000000002,0.0
51727.0,STARLINK-3532,PAYLOAD,2022-08-13 22:00:00,15.08813026,0.0001669,53.216,61.9792,58.1033,355.9876,0.0014026,0.00022088,0.0,0 STARLINK-3532,1 51727U 22016P   22225.91667824  .00022088  00000-0  14026-2 0  9994,2 51727  53.2160  61.9792 0001669  58.1033 355.9876 15.08813026  1308,6917.9630000000025,95.439,540.982,538.673,0.0
51727.0,STARLINK-3532,PAYLOAD,2022-08-14 14:00:01,15.08845093,0.0001525,53.216,58.9846,66.5916,10.6601,0.00026965,4.007e-05,0.0,0 STARLINK-3532,1 51727U 22016P   22226.58334491  .00004007  00000-0  26965-3 0  9996,2 51727  53.2160  58.9846 0001525  66.5916  10.6601 15.08845093  1308,6917.865,95.437,540.785,538.675,0.0
51727.0,STARLINK-3532,PAYLOAD,2022-08-14 22:00:00,15.08828877,0.0001636,53.216,57.4898,58.9862,29.8722,0.0018774,0.00029708,0.0,0 STARLINK-3532,1 51727U 22016P   22226.91667824  .00029708  00000-0  18774-2 0  9995,2 51727  53.2160  57.4898 0001636  58.9862  29.8722 15.08828877  1304,6917.9140000000025,95.438,540.911,538.648,0.0
51727.0,STARLINK-3532,PAYLOAD,2022-08-15 00:00:00,15.08824095,0.0001621999999999,53.2157,57.1156,57.1984,124.5601,0.0029785999999999,0.00047415,0.0,0 STARLINK-3532,1 51727U 22016P   22227.00001157  .00047415  00000-0  29786-2 0  9997,2 51727  53.2157  57.1156 0001622  57.1984 124.5601 15.08824095 27827,6917.929,95.439,540.9159999999998,538.672,0.0
51727.0,STARLINK-3532,PAYLOAD,2022-08-15 14:00:01,15.08849454,0.0001448,53.2159,54.4953,66.6915,45.3656,-0.0016308,-0.00026155,0.0,0 STARLINK-3532,1 51727U 22016P   22227.58334491 -.00026155  00000-0 -16308-2 0  9996,2 51727  53.2159  54.4953 0001448  66.6915  45.3656 15.08849454  1300,6917.851,95.437,540.7180000000002,538.715,0.0
51727.0,STARLINK-3532,PAYLOAD,2022-08-15 16:00:00,15.08848222,0.0001443999999999,53.2159,54.1219,63.7223,141.2344,-0.0020597,-0.00032926,0.0,0 STARLINK-3532,1 51727U 22016P   22227.66667824 -.00032926  00000-0 -20597-2 0  9992,2 51727  53.2159  54.1219 0001444  63.7223 141.2344 15.08848222 27926,6917.855,95.437,540.719,538.721,0.0
51727.0,STARLINK-3532,PAYLOAD,2022-08-15 22:00:00,15.08811653,0.0001527,53.2159,53.0006,57.5811,66.0759,0.0022936,0.00036375,0.0,0 STARLINK-3532,1 51727U 22016P   22227.91667824  .00036375  00000-0  22936-2 0  9999,2 51727  53.2159  53.0006 0001527  57.5811  66.0759 15.08811653  1300,6917.967,95.439,540.888,538.776,0.0
51727.0,STARLINK-3532,PAYLOAD,2022-08-16 08:00:01,15.088186,0.0001385999999999,53.2156,51.1282,64.0677,164.0741,0.0023324,0.00037006,0.0,0 STARLINK-3532,1 51727U 22016P   22228.33334491  .00037006  00000-0  23324-2 0  9991,2 51727  53.2156  51.1282 0001386  64.0677 164.0741 15.08818600 28025,6917.946,95.439,540.77,538.852,0.0
51727.0,STARLINK-3532,PAYLOAD,2022-08-16 14:00:01,15.08853611,0.0001458,53.2159,50.0063,66.4378,80.3862,-0.00061196,-0.00010018,0.0,0 STARLINK-3532,1 51727U 22016P   22228.58334491 -.00010018  00000-0 -61196-3 0  9994,2 51727  53.2159  50.0063 0001458  66.4378  80.3862 15.08853611  1304,6917.839,95.437,540.712,538.695,0.0
51727.0,STARLINK-3532,PAYLOAD,2022-08-16 22:00:00,15.08834254,0.0001592,53.2159,48.5114,57.583,100.8528,0.0012704,0.00019985,0.0,0 STARLINK-3532,1 51727U 22016P   22228.91667824  .00019985  00000-0  12704-2 0  9990,2 51727  53.2159  48.5114 0001592  57.5830 100.8528 15.08834254  1305,6917.898,95.438,540.864,538.6619999999998,0.0
51727.0,STARLINK-3532,PAYLOAD,2022-08-17 06:00:02,15.08830847,0.0001529,53.2158,47.0134,63.9725,106.1283,-0.00062069,-0.0001014999999999,0.0,0 STARLINK-3532,1 51727U 22016P   22229.25002315 -.00010150  00000-0 -62069-3 0  9993,2 51727  53.2158  47.0134 0001529  63.9725 106.1283 15.08830847 28168,6917.908,95.438,540.831,538.716,0.0
51727.0,STARLINK-3532,PAYLOAD,2022-08-17 16:00:00,15.08845202,0.0001429,53.2159,45.1437,59.9104,214.597,-0.0012217,-0.00019681,0.0,0 STARLINK-3532,1 51727U 22016P   22229.66667824 -.00019681  00000-0 -12217-2 0  9997,2 51727  53.2159  45.1437 0001429  59.9104 214.5970 15.08845202  1304,6917.864000000001,95.437,540.7180000000002,538.741,0.0
51727.0,STARLINK-3532,PAYLOAD,2022-08-18 08:00:01,15.08826759,0.0001367,53.2161,42.1498,59.9941,237.7156,0.0034296999999999,0.000547,0.0,0 STARLINK-3532,1 51727U 22016P   22230.33334491  .00054700  00000-0  34297-2 0  9995,2 51727  53.2161  42.1498 0001367  59.9941 237.7156 15.08826759 28321,6917.920999999999,95.438,540.732,538.84,0.0
51727.0,STARLINK-3532,PAYLOAD,2022-08-18 14:00:01,15.08878663,0.0001426999999999,53.2164,41.0282,60.3034,156.0983,-0.0018311,-0.00029342,0.0,0 STARLINK-3532,1 51727U 22016P   22230.58334491 -.00029342  00000-0 -18311-2 0  9997,2 51727  53.2164  41.0282 0001427  60.3034 156.0983 15.08878663  1300,6917.762,95.435,540.614,538.64,0.0
51727.0,STARLINK-3532,PAYLOAD,2022-08-18 22:00:00,15.08825273,0.0001513,53.2164,39.5331,49.7865,178.25400000000005,0.0028385,0.00045158,0.0,0 STARLINK-3532,1 51727U 22016P   22230.91667824  .00045158  00000-0  28385-2 0  9996,2 51727  53.2164  39.5331 0001513  49.7865 178.2540 15.08825273 28411,6917.925,95.438,540.837,538.744,0.0
51727.0,STARLINK-3532,PAYLOAD,2022-08-19 14:00:01,15.08853261,0.0001453,53.2168,36.539,58.3278,192.8986,-0.0038353,-0.00060833,0.0,0 STARLINK-3532,1 51727U 22016P   22231.58334491 -.00060833  00000-0 -38353-2 0  9996,2 51727  53.2168  36.5390 0001453  58.3278 192.8986 15.08853261  1307,6917.84,95.437,540.71,538.7,0.0
51727.0,STARLINK-3532,PAYLOAD,2022-08-19 16:00:00,15.08843946,0.0001494,53.2168,36.1654,54.7874,289.3392,-0.0037461999999999,-0.00059423,0.0,0 STARLINK-3532,1 51727U 22016P   22231.66667824 -.00059423  00000-0 -37462-2 0  9997,2 51727  53.2168  36.1654 0001494  54.7874 289.3392 15.08843946 28528,6917.868,95.437,540.7669999999998,538.7,0.0
